NORAD_CAT_ID,OBJECT_NAME,OBJECT_TYPE,EPOCH,MEAN_MOTION,ECCENTRICITY,INCLINATION,RA_OF_ASC_NODE,ARG_OF_PERICENTER,MEAN_ANOMALY,BSTAR,MEAN_MOTION_DOT,MEAN_MOTION_DDOT,TLE_LINE0,TLE_LINE1,TLE_LINE2,SEMIMAJOR_AXIS,PERIOD,APOGEE,PERIGEE,DECAYED
49413.0,STARLINK-3157,PAYLOAD,2022-03-15 02:00:01,15.08850411,0.0002011,53.2157,273.5999,47.5258,311.2798,-0.00071338,-0.00011627,0.0,0 STARLINK-3157,1 49413U 21104F   22074.08334491 -.00011627  00000-0 -71338-3 0  9990,2 49413  53.2157 273.5999 0002011  47.5258 311.2798 15.08850411 20113,6917.849,95.437,541.105,538.322,0.0
49413.0,STARLINK-3157,PAYLOAD,2022-03-15 22:00:00,15.08809736,0.0002072,53.2162,269.8592,48.5441,159.2301,0.0020218,0.00032009,0.0,0 STARLINK-3157,1 49413U 21104F   22074.91667824  .00032009  00000-0  20218-2 0  9996,2 49413  53.2162 269.8592 0002072  48.5441 159.2301 15.08809736  3584,6917.973000000001,95.439,541.271,538.404,0.0
49413.0,STARLINK-3157,PAYLOAD,2022-03-16 06:00:00,15.08840828,0.0001936,53.2162,268.3613,50.826,168.5202,-0.0011928,-0.00019222,0.0,0 STARLINK-3157,1 49413U 21104F   22075.25001157 -.00019222  00000-0 -11928-2 0  9997,2 49413  53.2162 268.3613 0001936  50.8260 168.5202 15.08840828 20292,6917.878000000002,95.438,541.082,538.404,0.0
49413.0,STARLINK-3157,PAYLOAD,2022-03-16 14:00:01,15.08846349,0.0001939,53.2164,266.8647,55.078,175.8539,-4.7067e-05,-1.037e-05,0.0,0 STARLINK-3157,1 49413U 21104F   22075.58334491 -.00001037  00000-0 -47067-4 0  9993,2 49413  53.2164 266.8647 0001939  55.0780 175.8539 15.08846349  3605,6917.861,95.437,541.067,538.385,0.0
49413.0,STARLINK-3157,PAYLOAD,2022-03-16 20:00:01,15.08838909,0.0002088,53.2163,265.7437,50.4585,99.1751,-0.00016616,-2.932e-05,0.0,0 STARLINK-3157,1 49413U 21104F   22075.83334491 -.00002932  00000-0 -16616-3 0  9991,2 49413  53.2163 265.7437 0002088  50.4585  99.1751 15.08838909 20388,6917.884,95.438,541.193,538.304,0.0
49413.0,STARLINK-3157,PAYLOAD,2022-03-17 14:00:01,15.08863412,0.000195,53.2166,262.3753,55.8832,209.8471,-0.00039427,-6.562e-05,0.0,0 STARLINK-3157,1 49413U 21104F   22076.58334491 -.00006562  00000-0 -39427-3 0  9992,2 49413  53.2166 262.3753 0001950  55.8832 209.8471 15.08863412 20494,6917.809,95.436,541.023,538.325,0.0
49413.0,STARLINK-3157,PAYLOAD,2022-03-17 22:00:00,15.08845154,0.0002084,53.2165,260.8803,49.6762,227.678,0.0011585,0.000182,0.0,0 STARLINK-3157,1 49413U 21104F   22076.91667824  .00018200  00000-0  11585-2 0  9992,2 49413  53.2165 260.8803 0002084  49.6762 227.6780 15.08845154  3602,6917.865,95.437,541.1709999999998,538.288,0.0
49413.0,STARLINK-3157,PAYLOAD,2022-03-18 14:00:01,15.08852994,0.0001841,53.2166,257.8859,54.8381,245.7171,-0.00083379,-0.00013538,0.0,0 STARLINK-3157,1 49413U 21104F   22077.58334491 -.00013538  00000-0 -83379-3 0  9999,2 49413  53.2166 257.8859 0001841  54.8381 245.7171 15.08852994  3611,6917.840999999999,95.437,540.979,538.432,0.0
49413.0,STARLINK-3157,PAYLOAD,2022-03-18 22:00:00,15.08822925,0.0001983,53.2163,256.3908,48.9784,263.1865,0.0026554,0.00042207,0.0,0 STARLINK-3157,1 49413U 21104F   22077.91667824  .00042207  00000-0  26554-2 0  9999,2 49413  53.2163 256.3908 0001983  48.9784 263.1865 15.08822925 20697,6917.933000000001,95.439,541.169,538.4259999999998,0.0
49413.0,STARLINK-3157,PAYLOAD,2022-03-19 02:00:01,15.08864211,0.0001925,53.2161,255.6419,48.931,89.079,-0.0032681,-0.0005196,0.0,0 STARLINK-3157,1 49413U 21104F   22078.08335648 -.00051960  00000-0 -32681-2 0  9990,2 49413  53.2161 255.6419 0001925  48.9310  89.0790 15.08864211 20725,6917.806,95.436,541.003,538.34,0.0
49413.0,STARLINK-3157,PAYLOAD,2022-03-19 14:00:01,15.08836789,0.0001748,53.2166,253.3967,53.6289,281.7071,-0.0012978,-0.00020882,0.0,0 STARLINK-3157,1 49413U 21104F   22078.58334491 -.00020882  00000-0 -12978-2 0  9996,2 49413  53.2166 253.3967 0001748  53.6289 281.7071 15.08836789  3581,6917.89,95.438,540.964,538.5459999999998,0.0
49413.0,STARLINK-3157,PAYLOAD,2022-03-19 22:00:01,15.08803313,0.0001898,53.2163,251.9016,48.0931,298.8926,0.0027131,0.00043112,0.0,0 STARLINK-3157,1 49413U 21104F   22078.91668981  .00043112  00000-0  27131-2 0  9993,2 49413  53.2163 251.9016 0001898  48.0931 298.8926 15.08803313 20848,6917.993,95.44,541.1709999999998,538.544,0.0
49413.0,STARLINK-3157,PAYLOAD,2022-03-20 14:00:01,15.08850031,0.0001793,53.2164,248.9077,54.2042,315.8655,-0.0015308,-0.00024575,0.0,0 STARLINK-3157,1 49413U 21104F   22079.58334491 -.00024575  00000-0 -15308-2 0  9990,2 49413  53.2164 248.9077 0001793  54.2042 315.8655 15.08850031 20947,6917.85,95.437,540.955,538.474,0.0
49413.0,STARLINK-3157,PAYLOAD,2022-03-20 22:00:01,15.08819077,0.0001925,53.2162,247.4125,48.1906,333.5466,0.0029451,0.00046869,0.0,0 STARLINK-3157,1 49413U 21104F   22079.91668981  .00046869  00000-0  29451-2 0  9993,2 49413  53.2162 247.4125 0001925  48.1906 333.5466 15.08819077  3618,6917.944,95.439,541.141,538.4780000000002,0.0
49413.0,STARLINK-3157,PAYLOAD,2022-03-21 06:00:00,15.08830819,0.0001776,53.2162,245.9144,53.1358,340.1339,0.0015422,0.00024335,0.0,0 STARLINK-3157,1 49413U 21104F   22080.25001157  .00024335  00000-0  15422-2 0  9995,2 49413  53.2162 245.9144 0001776  53.1358 340.1339 15.08830819 21051,6917.908,95.438,541.002,538.545,0.0
49413.0,STARLINK-3157,PAYLOAD,2022-03-21 14:00:01,15.08876181,0.0001834,53.2164,244.4186,53.0245,351.832,-0.0034435,-0.0005473,0.0,0 STARLINK-3157,1 49413U 21104F   22080.58334491 -.00054730  00000-0 -34435-2 0  9990,2 49413  53.2164 244.4186 0001834  53.0245 351.8320 15.08876181  3592,6917.77,95.435,540.904,538.366,0.0
49413.0,STARLINK-3157,PAYLOAD,2022-03-21 22:00:00,15.08812578,0.0001898,53.2163,242.9234,45.9588,10.5186,0.0021718,0.0003442,0.0,0 STARLINK-3157,1 49413U 21104F   22080.91667824  .00034420  00000-0  21718-2 0  9998,2 49413  53.2163 242.9234 0001898  45.9588  10.5186 15.08812578 21159,6917.964,95.439,541.1419999999998,538.516,0.0
49413.0,STARLINK-3157,PAYLOAD,2022-03-22 14:00:01,15.08856678,0.0001858,53.2167,239.9295,51.0607,28.5797,-0.0016640999999999,-0.00026687,0.0,0 STARLINK-3157,1 49413U 21104F   22081.58334491 -.00026687  00000-0 -16641-2 0  9990,2 49413  53.2167 239.9295 0001858  51.0607  28.5797 15.08856678 21259,6917.829000000002,95.436,540.98,538.409,0.0
49413.0,STARLINK-3157,PAYLOAD,2022-03-22 22:00:01,15.08833538,0.0001956,53.2165,238.4342,44.742,46.567,0.0017965,0.00028414,0.0,0 STARLINK-3157,1 49413U 21104F   22081.91668981  .00028414  00000-0  17965-2 0  9999,2 49413  53.2165 238.4342 0001956  44.7420  46.5670 15.08833538  3570,6917.9,95.438,541.118,538.4119999999998,0.0
49413.0,STARLINK-3157,PAYLOAD,2022-03-23 06:00:00,15.08820069,0.0001735,53.2168,236.9361,48.5504,54.3065,0.0011072,0.00017367,0.0,0 STARLINK-3157,1 49413U 21104F   22082.25001157  .00017367  00000-0  11072-2 0  9991,2 49413  53.2168 236.9361 0001735  48.5504  54.3065 15.08820069 21353,6917.941,95.439,541.007,538.606,0.0
49413.0,STARLINK-3157,PAYLOAD,2022-03-23 14:00:01,15.08849694,0.0001851,53.2169,235.4406,48.0014,66.4316,-0.0015275,-0.00024523,0.0,0 STARLINK-3157,1 49413U 21104F   22082.58334491 -.00024523  00000-0 -15275-2 0  9990,2 49413  53.2169 235.4406 0001851  48.0014  66.4316 15.08849694  3615,6917.851,95.437,540.996,538.435,0.0
49413.0,STARLINK-3157,PAYLOAD,2022-03-23 22:00:00,15.08826006,0.0001959,53.2168,233.9453,42.8147,83.2145,0.0023881,0.00037909,0.0,0 STARLINK-3157,1 49413U 21104F   22082.91667824  .00037909  00000-0  23881-2 0  9998,2 49413  53.2168 233.9453 0001959  42.8147  83.2145 15.08826006  3605,6917.9230000000025,95.438,541.143,538.433,0.0
49413.0,STARLINK-3157,PAYLOAD,2022-03-24 14:00:01,15.08848812,0.0001817,53.2171,230.9517,45.3453,103.887,-0.0017754,-0.0002844,0.0,0 STARLINK-3157,1 49413U 21104F   22083.58334491 -.00028440  00000-0 -17754-2 0  9997,2 49413  53.2171 230.9517 0001817  45.3453 103.8870 15.08848812  3588,6917.853,95.437,540.975,538.461,0.0
49413.0,STARLINK-3157,PAYLOAD,2022-03-24 22:00:00,15.0883188,0.0001908,53.2167,229.4562,40.2438,120.5821,0.0015923,0.00025139,0.0,0 STARLINK-3157,1 49413U 21104F   22083.91667824  .00025139  00000-0  15923-2 0  9999,2 49413  53.2167 229.4562 0001908  40.2438 120.5821 15.08831880  3606,6917.905,95.438,541.09,538.45,0.0
49413.0,STARLINK-3157,PAYLOAD,2022-03-25 00:00:02,15.08862821,0.0001834,53.2167,229.0815,41.3353,212.4444,-0.0023981,-0.00038276,0.0,0 STARLINK-3157,1 49413U 21104F   22084.00002315 -.00038276  00000-0 -23981-2 0  9999,2 49413  53.2167 229.0815 0001834  41.3353 212.4444 15.08862821 21611,6917.811,95.436,540.944,538.4069999999998,0.0
49413.0,STARLINK-3157,PAYLOAD,2022-03-25 14:00:01,15.08838857,0.0001740999999999,53.217,226.463,42.3123,141.6941,-0.0012459,-0.00020061,0.0,0 STARLINK-3157,1 49413U 21104F   22084.58334491 -.00020061  00000-0 -12459-2 0  9996,2 49413  53.2170 226.4630 0001741  42.3123 141.6941 15.08838857  3598,6917.884,95.438,540.953,538.544,0.0
49413.0,STARLINK-3157,PAYLOAD,2022-03-25 22:00:01,15.0882987,0.0001838,53.2165,224.9671,38.3999,157.2532,0.0010749,0.00016856,0.0,0 STARLINK-3157,1 49413U 21104F   22084.91668981  .00016856  00000-0  10749-2 0  9992,2 49413  53.2165 224.9671 0001838  38.3999 157.2532 15.08829870 21755,6917.911,95.438,541.048,538.505,0.0
49413.0,STARLINK-3157,PAYLOAD,2022-03-26 06:00:00,15.08813857,0.0001556,53.2165,223.4693,44.2692,162.8496,0.0031083,0.00049493,0.0,0 STARLINK-3157,1 49413U 21104F   22085.25001157  .00049493  00000-0  31083-2 0  9993,2 49413  53.2165 223.4693 0001556  44.2692 162.8496 15.08813857 21801,6917.96,95.439,540.9019999999998,538.749,0.0
49413.0,STARLINK-3157,PAYLOAD,2022-03-26 14:00:01,15.08837157,0.0001857,53.2175,221.9604,40.4058,178.327,-7.3497e-05,-1.458e-05,0.0,0 STARLINK-3157,1 49413U 21104F   22085.58334491 -.00001458  00000-0 -73497-4 0  9997,2 49413  53.2175 221.9604 0001857  40.4058 178.3270 15.08837157  3570,6917.889,95.438,541.039,538.469,0.0
